CCSDS_OMM_VERS = 2.0
CREATION_DATE  = 
ORIGINATOR     = 

OBJECT_NAME    = STARLINK-35559
OBJECT_ID      = 2025-236K
CENTER_NAME    = EARTH
REF_FRAME      = TEME
TIME_SYSTEM    = UTC
MEAN_ELEMENT_THEORY = SGP/SGP4

EPOCH          = 2025-11-13T22:00:03.000096
MEAN_MOTION    = 15.52484283
ECCENTRICITY   = .00014148
INCLINATION    = 53.1592
RA_OF_ASC_NODE = 283.5906
ARG_OF_PERICENTER = 107.8143
MEAN_ANOMALY   = 180.9239

EPHEMERIS_TYPE = 0
CLASSIFICATION_TYPE = U
NORAD_CAT_ID   = 66095
ELEMENT_SET_NO = 999
REV_AT_EPOCH   = 524
BSTAR          = -.35779154E-1
MEAN_MOTION_DOT = -.1993413E-1
MEAN_MOTION_DDOT = 0

CCSDS_OMM_VERS = 2.0
CREATION_DATE  = 
ORIGINATOR     = 

OBJECT_NAME    = STARLINK-34386
OBJECT_ID      = 2025-236L
CENTER_NAME    = EARTH
REF_FRAME      = TEME
TIME_SYSTEM    = UTC
MEAN_ELEMENT_THEORY = SGP/SGP4

EPOCH          = 2025-11-13T22:00:03.000096
MEAN_MOTION    = 15.52484378
ECCENTRICITY   = .00014126
INCLINATION    = 53.1593
RA_OF_ASC_NODE = 283.5865
ARG_OF_PERICENTER = 108.6647
MEAN_ANOMALY   = 181.9897

EPHEMERIS_TYPE = 0
CLASSIFICATION_TYPE = U
NORAD_CAT_ID   = 66096
ELEMENT_SET_NO = 999
REV_AT_EPOCH   = 524
BSTAR          = -.35765925E-1
MEAN_MOTION_DOT = -.1992758E-1
MEAN_MOTION_DDOT = 0

CCSDS_OMM_VERS = 2.0
CREATION_DATE  = 
ORIGINATOR     = 

OBJECT_NAME    = STARLINK-35613
OBJECT_ID      = 2025-236M
CENTER_NAME    = EARTH
REF_FRAME      = TEME
TIME_SYSTEM    = UTC
MEAN_ELEMENT_THEORY = SGP/SGP4

EPOCH          = 2025-11-13T22:00:03.000096
MEAN_MOTION    = 15.52485449
ECCENTRICITY   = .00014006
INCLINATION    = 53.1597
RA_OF_ASC_NODE = 283.5783
ARG_OF_PERICENTER = 107.1069
MEAN_ANOMALY   = 187.3814

EPHEMERIS_TYPE = 0
CLASSIFICATION_TYPE = U
NORAD_CAT_ID   = 66097
ELEMENT_SET_NO = 999
REV_AT_EPOCH   = 524
BSTAR          = -.35815765E-1
MEAN_MOTION_DOT = -.1995305E-1
MEAN_MOTION_DDOT = 0

CCSDS_OMM_VERS = 2.0
CREATION_DATE  = 
ORIGINATOR     = 

OBJECT_NAME    = STARLINK-34206
OBJECT_ID      = 2025-236N
CENTER_NAME    = EARTH
REF_FRAME      = TEME
TIME_SYSTEM    = UTC
MEAN_ELEMENT_THEORY = SGP/SGP4

EPOCH          = 2025-11-13T22:00:03.000096
MEAN_MOTION    = 15.52482433
ECCENTRICITY   = .00013547
INCLINATION    = 53.1595
RA_OF_ASC_NODE = 283.5744
ARG_OF_PERICENTER = 100.5274
MEAN_ANOMALY   = 195.8776

EPHEMERIS_TYPE = 0
CLASSIFICATION_TYPE = U
NORAD_CAT_ID   = 66098
ELEMENT_SET_NO = 999
REV_AT_EPOCH   = 523
BSTAR          = -.3567031E-1
MEAN_MOTION_DOT = -.1987828E-1
MEAN_MOTION_DDOT = 0

CCSDS_OMM_VERS = 2.0
CREATION_DATE  = 
ORIGINATOR     = 

OBJECT_NAME    = STARLINK-34460
OBJECT_ID      = 2025-236P
CENTER_NAME    = EARTH
REF_FRAME      = TEME
TIME_SYSTEM    = UTC
MEAN_ELEMENT_THEORY = SGP/SGP4

EPOCH          = 2025-11-13T22:00:03.000096
MEAN_MOTION    = 15.52485191
ECCENTRICITY   = .00013569
INCLINATION    = 53.1592
RA_OF_ASC_NODE = 283.5828
ARG_OF_PERICENTER = 103.9007
MEAN_ANOMALY   = 188.6702

EPHEMERIS_TYPE = 0
CLASSIFICATION_TYPE = U
NORAD_CAT_ID   = 66099
ELEMENT_SET_NO = 999
REV_AT_EPOCH   = 524
BSTAR          = -.35787015E-1
MEAN_MOTION_DOT = -.199383E-1
MEAN_MOTION_DDOT = 0

CCSDS_OMM_VERS = 2.0
CREATION_DATE  = 
ORIGINATOR     = 

OBJECT_NAME    = STARLINK-35609
OBJECT_ID      = 2025-236Q
CENTER_NAME    = EARTH
REF_FRAME      = TEME
TIME_SYSTEM    = UTC
MEAN_ELEMENT_THEORY = SGP/SGP4

EPOCH          = 2025-11-13T22:00:03.000096
MEAN_MOTION    = 15.52488415
ECCENTRICITY   = .00013794
INCLINATION    = 53.1597
RA_OF_ASC_NODE = 283.5700
ARG_OF_PERICENTER = 102.9637
MEAN_ANOMALY   = 195.3573

EPHEMERIS_TYPE = 0
CLASSIFICATION_TYPE = U
NORAD_CAT_ID   = 66100
ELEMENT_SET_NO = 999
REV_AT_EPOCH   = 518
BSTAR          = -.35932993E-1
MEAN_MOTION_DOT = -.2001328E-1
MEAN_MOTION_DDOT = 0

CCSDS_OMM_VERS = 2.0
CREATION_DATE  = 
ORIGINATOR     = 

OBJECT_NAME    = STARLINK-35595
OBJECT_ID      = 2025-236R
CENTER_NAME    = EARTH
REF_FRAME      = TEME
TIME_SYSTEM    = UTC
MEAN_ELEMENT_THEORY = SGP/SGP4

EPOCH          = 2025-11-13T22:00:03.000096
MEAN_MOTION    = 15.52481976
ECCENTRICITY   = .00013822
INCLINATION    = 53.1593
RA_OF_ASC_NODE = 283.5651
ARG_OF_PERICENTER = 100.8549
MEAN_ANOMALY   = 199.3848

EPHEMERIS_TYPE = 0
CLASSIFICATION_TYPE = U
NORAD_CAT_ID   = 66101
ELEMENT_SET_NO = 999
REV_AT_EPOCH   = 518
BSTAR          = -.35668475E-1
MEAN_MOTION_DOT = -.1987723E-1
MEAN_MOTION_DDOT = 0

CCSDS_OMM_VERS = 2.0
CREATION_DATE  = 
ORIGINATOR     = 

OBJECT_NAME    = STARLINK-35599
OBJECT_ID      = 2025-236S
CENTER_NAME    = EARTH
REF_FRAME      = TEME
TIME_SYSTEM    = UTC
MEAN_ELEMENT_THEORY = SGP/SGP4

EPOCH          = 2025-11-13T22:00:03.000096
MEAN_MOTION    = 15.52485025
ECCENTRICITY   = .00013772
INCLINATION    = 53.1598
RA_OF_ASC_NODE = 283.5624
ARG_OF_PERICENTER = 104.4427
MEAN_ANOMALY   = 197.7128

EPHEMERIS_TYPE = 0
CLASSIFICATION_TYPE = U
NORAD_CAT_ID   = 66102
ELEMENT_SET_NO = 999
REV_AT_EPOCH   = 518
BSTAR          = -.35793904E-1
MEAN_MOTION_DOT = -.1994174E-1
MEAN_MOTION_DDOT = 0

CCSDS_OMM_VERS = 2.0
CREATION_DATE  = 
ORIGINATOR     = 

OBJECT_NAME    = STARLINK-35622
OBJECT_ID      = 2025-236T
CENTER_NAME    = EARTH
REF_FRAME      = TEME
TIME_SYSTEM    = UTC
MEAN_ELEMENT_THEORY = SGP/SGP4

EPOCH          = 2025-11-13T22:00:03.000096
MEAN_MOTION    = 15.52475164
ECCENTRICITY   = .0001368
INCLINATION    = 53.1594
RA_OF_ASC_NODE = 283.5541
ARG_OF_PERICENTER = 105.4195
MEAN_ANOMALY   = 200.5730

EPHEMERIS_TYPE = 0
CLASSIFICATION_TYPE = U
NORAD_CAT_ID   = 66103
ELEMENT_SET_NO = 999
REV_AT_EPOCH   = 524
BSTAR          = -.35411384E-1
MEAN_MOTION_DOT = -.1974438E-1
MEAN_MOTION_DDOT = 0

CCSDS_OMM_VERS = 2.0
CREATION_DATE  = 
ORIGINATOR     = 

OBJECT_NAME    = STARLINK-35452
OBJECT_ID      = 2025-236U
CENTER_NAME    = EARTH
REF_FRAME      = TEME
TIME_SYSTEM    = UTC
MEAN_ELEMENT_THEORY = SGP/SGP4

EPOCH          = 2025-11-13T22:00:03.000096
MEAN_MOTION    = 15.52482362
ECCENTRICITY   = .00013346
INCLINATION    = 53.1598
RA_OF_ASC_NODE = 283.5580
ARG_OF_PERICENTER = 109.2449
MEAN_ANOMALY   = 194.8286

EPHEMERIS_TYPE = 0
CLASSIFICATION_TYPE = U
NORAD_CAT_ID   = 66104
ELEMENT_SET_NO = 999
REV_AT_EPOCH   = 524
BSTAR          = -.35696829E-1
MEAN_MOTION_DOT = -.1989134E-1
MEAN_MOTION_DDOT = 0

CCSDS_OMM_VERS = 2.0
CREATION_DATE  = 
ORIGINATOR     = 

OBJECT_NAME    = STARLINK-35561
OBJECT_ID      = 2025-236V
CENTER_NAME    = EARTH
REF_FRAME      = TEME
TIME_SYSTEM    = UTC
MEAN_ELEMENT_THEORY = SGP/SGP4

EPOCH          = 2025-11-13T22:00:03.000096
MEAN_MOTION    = 15.52482186
ECCENTRICITY   = .00013488
INCLINATION    = 53.1594
RA_OF_ASC_NODE = 283.5499
ARG_OF_PERICENTER = 101.3497
MEAN_ANOMALY   = 206.5573

EPHEMERIS_TYPE = 0
CLASSIFICATION_TYPE = U
NORAD_CAT_ID   = 66105
ELEMENT_SET_NO = 999
REV_AT_EPOCH   = 518
BSTAR          = -.35692107E-1
MEAN_MOTION_DOT = -.1988896E-1
MEAN_MOTION_DDOT = 0

CCSDS_OMM_VERS = 2.0
CREATION_DATE  = 
ORIGINATOR     = 

OBJECT_NAME    = STARLINK-35584
OBJECT_ID      = 2025-236W
CENTER_NAME    = EARTH
REF_FRAME      = TEME
TIME_SYSTEM    = UTC
MEAN_ELEMENT_THEORY = SGP/SGP4

EPOCH          = 2025-11-13T22:00:03.000096
MEAN_MOTION    = 15.52479967
ECCENTRICITY   = .00013243
INCLINATION    = 53.1593
RA_OF_ASC_NODE = 283.5451
ARG_OF_PERICENTER = 101.3411
MEAN_ANOMALY   = 208.4829

EPHEMERIS_TYPE = 0
CLASSIFICATION_TYPE = U
NORAD_CAT_ID   = 66106
ELEMENT_SET_NO = 999
REV_AT_EPOCH   = 524
BSTAR          = -.35584818E-1
MEAN_MOTION_DOT = -.1983384E-1
MEAN_MOTION_DDOT = 0

