STARLINK-35559          
1 66095U 25236K   25317.91670139 -.01993413  00000+0 -35779-1 0  9991
2 66095  53.1592 283.5906 0001414 107.8143 180.9239 15.52484283  5245
STARLINK-34386          
1 66096U 25236L   25317.91670139 -.01992758  00000+0 -35766-1 0  9999
2 66096  53.1593 283.5865 0001412 108.6647 181.9897 15.52484378  5243
STARLINK-35613          
1 66097U 25236M   25317.91670139 -.01995305  00000+0 -35816-1 0  9997
2 66097  53.1597 283.5783 0001400 107.1069 187.3814 15.52485449  5245
STARLINK-34206          
1 66098U 25236N   25317.91670139 -.01987828  00000+0 -35670-1 0  9997
2 66098  53.1595 283.5744 0001354 100.5274 195.8776 15.52482433  5234
STARLINK-34460          
1 66099U 25236P   25317.91670139 -.01993830  00000+0 -35787-1 0  9997
2 66099  53.1592 283.5828 0001356 103.9007 188.6702 15.52485191  5242
STARLINK-35609          
1 66100U 25236Q   25317.91670139 -.02001328  00000+0 -35933-1 0  9996
2 66100  53.1597 283.5700 0001379 102.9637 195.3573 15.52488415  5188
STARLINK-35595          
1 66101U 25236R   25317.91670139 -.01987723  00000+0 -35668-1 0  9993
2 66101  53.1593 283.5651 0001382 100.8549 199.3848 15.52481976  5187
STARLINK-35599          
1 66102U 25236S   25317.91670139 -.01994174  00000+0 -35794-1 0  9992
2 66102  53.1598 283.5624 0001377 104.4427 197.7128 15.52485025  5184
STARLINK-35622          
1 66103U 25236T   25317.91670139 -.01974438  00000+0 -35411-1 0  9990
2 66103  53.1594 283.5541 0001368 105.4195 200.5730 15.52475164  5244
STARLINK-35452          
1 66104U 25236U   25317.91670139 -.01989134  00000+0 -35697-1 0  9996
2 66104  53.1598 283.5580 0001334 109.2449 194.8286 15.52482362  5248
STARLINK-35561          
1 66105U 25236V   25317.91670139 -.01988896  00000+0 -35692-1 0  9996
2 66105  53.1594 283.5499 0001348 101.3497 206.5573 15.52482186  5182
STARLINK-35584          
1 66106U 25236W   25317.91670139 -.01983384  00000+0 -35585-1 0  9995
2 66106  53.1593 283.5451 0001324 101.3411 208.4829 15.52479967  5245
